ATLAS CENTAUR 2         
1 00694U 63047A   26042.17551664  .00001390  00000+0  15538-3 0  9995
2 00694  30.3574 343.8083 0548130 206.6568 150.4836 14.11993366127871
THOR AGENA D R/B        
1 00733U 64002A   26042.00816375  .00000274  00000+0  11503-3 0  9994
2 00733  99.1230  53.8924 0032547 337.8719  22.1057 14.34003496234470
SL-3 R/B                
1 00877U 64053B   26042.00232600  .00000396  00000+0  10089-3 0  9995
2 00877  65.0764  49.4756 0078447 300.6794  58.6591 14.61339579262895
SL-8 R/B                
1 02802U 67045B   26041.44754027  .00000363  00000+0  10794-3 0  9995
2 02802  74.0103  38.9626 0063135  52.0645 308.6195 14.45595013 85083
SL-8 R/B                
1 03230U 68040B   26042.28721315  .00004054  00000+0  30176-3 0  9991
2 03230  74.0319   7.6302 0025147 199.2442 160.7800 15.03055855 86049
OAO 2                   
1 03597U 68110A   26042.08472510  .00000291  00000+0  83490-4 0  9990
2 03597  34.9940  53.7608 0005681 338.7422  21.3032 14.47291406 15244
ISIS 1                  
1 03669U 69009A   26042.25465711  .00000329  00000+0  22073-3 0  9993
2 03669  88.4555 158.1889 1707837 142.4989 230.8516 11.30404030345543
SERT 2                  
1 04327U 70009A   26042.28462485  .00000030  00000+0  97661-4 0  9990
2 04327  99.2722 346.8281 0004086 226.4897 300.6188 13.58727323776307
SL-3 R/B                
1 05118U 71028B   26042.22872869  .00038510  00000+0  48981-3 0  9990
2 05118  81.2345  84.6629 0017222  27.9352 332.2820 15.59006266984547
ASTEX 1                 
1 05560U 71089A   26042.19817238  .00000682  00000+0  17355-3 0  9993
2 05560  92.7150 143.1892 0016104 166.1917 193.9733 14.50739013858462
SL-8 R/B                
1 05730U 71119B   26041.93119129  .00013228  00000+0  68598-3 0  9996
2 05730  73.8852 225.7048 0553535 197.8335 160.2700 14.37023859651640
OAO 3 (COPERNICUS)      
1 06153U 72065A   26042.19910083  .00000416  00000+0  89810-4 0  9990
2 06153  35.0055  88.2379 0007150 301.6691 105.4248 14.59974155842324
