CCSDS_OMM_VERS = 2.0
CREATION_DATE  = 
ORIGINATOR     = 

OBJECT_NAME    = ATLAS CENTAUR 2
OBJECT_ID      = 1963-047A
CENTER_NAME    = EARTH
REF_FRAME      = TEME
TIME_SYSTEM    = UTC
MEAN_ELEMENT_THEORY = SGP/SGP4

EPOCH          = 2026-02-11T04:12:44.637696
MEAN_MOTION    = 14.11993366
ECCENTRICITY   = .054813
INCLINATION    = 30.3574
RA_OF_ASC_NODE = 343.8083
ARG_OF_PERICENTER = 206.6568
MEAN_ANOMALY   = 150.4836

EPHEMERIS_TYPE = 0
CLASSIFICATION_TYPE = U
NORAD_CAT_ID   = 694
ELEMENT_SET_NO = 999
REV_AT_EPOCH   = 12787
BSTAR          = .15537554E-3
MEAN_MOTION_DOT = .139E-4
MEAN_MOTION_DDOT = 0

CCSDS_OMM_VERS = 2.0
CREATION_DATE  = 
ORIGINATOR     = 

OBJECT_NAME    = THOR AGENA D R/B
OBJECT_ID      = 1964-002A
CENTER_NAME    = EARTH
REF_FRAME      = TEME
TIME_SYSTEM    = UTC
MEAN_ELEMENT_THEORY = SGP/SGP4

EPOCH          = 2026-02-11T00:11:45.348000
MEAN_MOTION    = 14.34003496
ECCENTRICITY   = .00325479
INCLINATION    = 99.1230
RA_OF_ASC_NODE = 53.8924
ARG_OF_PERICENTER = 337.8719
MEAN_ANOMALY   = 22.1057

EPHEMERIS_TYPE = 0
CLASSIFICATION_TYPE = U
NORAD_CAT_ID   = 733
ELEMENT_SET_NO = 999
REV_AT_EPOCH   = 23447
BSTAR          = .1150318E-3
MEAN_MOTION_DOT = .274E-5
MEAN_MOTION_DDOT = 0

CCSDS_OMM_VERS = 2.0
CREATION_DATE  = 
ORIGINATOR     = 

OBJECT_NAME    = SL-3 R/B
OBJECT_ID      = 1964-053B
CENTER_NAME    = EARTH
REF_FRAME      = TEME
TIME_SYSTEM    = UTC
MEAN_ELEMENT_THEORY = SGP/SGP4

EPOCH          = 2026-02-11T00:03:20.966400
MEAN_MOTION    = 14.61339579
ECCENTRICITY   = .00784474
INCLINATION    = 65.0764
RA_OF_ASC_NODE = 49.4756
ARG_OF_PERICENTER = 300.6794
MEAN_ANOMALY   = 58.6591

EPHEMERIS_TYPE = 0
CLASSIFICATION_TYPE = U
NORAD_CAT_ID   = 877
ELEMENT_SET_NO = 999
REV_AT_EPOCH   = 26289
BSTAR          = .10088962E-3
MEAN_MOTION_DOT = .396E-5
MEAN_MOTION_DDOT = 0

CCSDS_OMM_VERS = 2.0
CREATION_DATE  = 
ORIGINATOR     = 

OBJECT_NAME    = SL-8 R/B
OBJECT_ID      = 1967-045B
CENTER_NAME    = EARTH
REF_FRAME      = TEME
TIME_SYSTEM    = UTC
MEAN_ELEMENT_THEORY = SGP/SGP4

EPOCH          = 2026-02-10T10:44:27.479328
MEAN_MOTION    = 14.45595013
ECCENTRICITY   = .00631355
INCLINATION    = 74.0103
RA_OF_ASC_NODE = 38.9626
ARG_OF_PERICENTER = 52.0645
MEAN_ANOMALY   = 308.6195

EPHEMERIS_TYPE = 0
CLASSIFICATION_TYPE = U
NORAD_CAT_ID   = 2802
ELEMENT_SET_NO = 999
REV_AT_EPOCH   = 8508
BSTAR          = .10793991E-3
MEAN_MOTION_DOT = .363E-5
MEAN_MOTION_DDOT = 0

CCSDS_OMM_VERS = 2.0
CREATION_DATE  = 
ORIGINATOR     = 

OBJECT_NAME    = SL-8 R/B
OBJECT_ID      = 1968-040B
CENTER_NAME    = EARTH
REF_FRAME      = TEME
TIME_SYSTEM    = UTC
MEAN_ELEMENT_THEORY = SGP/SGP4

EPOCH          = 2026-02-11T06:53:35.216160
MEAN_MOTION    = 15.03055855
ECCENTRICITY   = .00251473
INCLINATION    = 74.0319
RA_OF_ASC_NODE = 7.6302
ARG_OF_PERICENTER = 199.2442
MEAN_ANOMALY   = 160.7800

EPHEMERIS_TYPE = 0
CLASSIFICATION_TYPE = U
NORAD_CAT_ID   = 3230
ELEMENT_SET_NO = 999
REV_AT_EPOCH   = 8604
BSTAR          = .30175852E-3
MEAN_MOTION_DOT = .4054E-4
MEAN_MOTION_DDOT = 0

CCSDS_OMM_VERS = 2.0
CREATION_DATE  = 
ORIGINATOR     = 

OBJECT_NAME    = OAO 2
OBJECT_ID      = 1968-110A
CENTER_NAME    = EARTH
REF_FRAME      = TEME
TIME_SYSTEM    = UTC
MEAN_ELEMENT_THEORY = SGP/SGP4

EPOCH          = 2026-02-11T02:02:00.248640
MEAN_MOTION    = 14.47291406
ECCENTRICITY   = .00056815
INCLINATION    = 34.9940
RA_OF_ASC_NODE = 53.7608
ARG_OF_PERICENTER = 338.7422
MEAN_ANOMALY   = 21.3032

EPHEMERIS_TYPE = 0
CLASSIFICATION_TYPE = U
NORAD_CAT_ID   = 3597
ELEMENT_SET_NO = 999
REV_AT_EPOCH   = 1524
BSTAR          = .83490181E-4
MEAN_MOTION_DOT = .291E-5
MEAN_MOTION_DDOT = 0

CCSDS_OMM_VERS = 2.0
CREATION_DATE  = 
ORIGINATOR     = 

OBJECT_NAME    = ISIS 1
OBJECT_ID      = 1969-009A
CENTER_NAME    = EARTH
REF_FRAME      = TEME
TIME_SYSTEM    = UTC
MEAN_ELEMENT_THEORY = SGP/SGP4

EPOCH          = 2026-02-11T06:06:42.374304
MEAN_MOTION    = 11.30404030
ECCENTRICITY   = .17078373
INCLINATION    = 88.4555
RA_OF_ASC_NODE = 158.1889
ARG_OF_PERICENTER = 142.4989
MEAN_ANOMALY   = 230.8516

EPHEMERIS_TYPE = 0
CLASSIFICATION_TYPE = U
NORAD_CAT_ID   = 3669
ELEMENT_SET_NO = 999
REV_AT_EPOCH   = 34554
BSTAR          = .22073497E-3
MEAN_MOTION_DOT = .329E-5
MEAN_MOTION_DDOT = 0

CCSDS_OMM_VERS = 2.0
CREATION_DATE  = 
ORIGINATOR     = 

OBJECT_NAME    = SERT 2
OBJECT_ID      = 1970-009A
CENTER_NAME    = EARTH
REF_FRAME      = TEME
TIME_SYSTEM    = UTC
MEAN_ELEMENT_THEORY = SGP/SGP4

EPOCH          = 2026-02-11T06:49:51.587040
MEAN_MOTION    = 13.58727323
ECCENTRICITY   = .00040865
INCLINATION    = 99.2722
RA_OF_ASC_NODE = 346.8281
ARG_OF_PERICENTER = 226.4897
MEAN_ANOMALY   = 300.6188

EPHEMERIS_TYPE = 0
CLASSIFICATION_TYPE = U
NORAD_CAT_ID   = 4327
ELEMENT_SET_NO = 999
REV_AT_EPOCH   = 77630
BSTAR          = .97661456E-4
MEAN_MOTION_DOT = .3E-6
MEAN_MOTION_DDOT = 0

CCSDS_OMM_VERS = 2.0
CREATION_DATE  = 
ORIGINATOR     = 

OBJECT_NAME    = SL-3 R/B
OBJECT_ID      = 1971-028B
CENTER_NAME    = EARTH
REF_FRAME      = TEME
TIME_SYSTEM    = UTC
MEAN_ELEMENT_THEORY = SGP/SGP4

EPOCH          = 2026-02-11T05:29:22.158816
MEAN_MOTION    = 15.59006266
ECCENTRICITY   = .00172227
INCLINATION    = 81.2345
RA_OF_ASC_NODE = 84.6629
ARG_OF_PERICENTER = 27.9352
MEAN_ANOMALY   = 332.2820

EPHEMERIS_TYPE = 0
CLASSIFICATION_TYPE = U
NORAD_CAT_ID   = 5118
ELEMENT_SET_NO = 999
REV_AT_EPOCH   = 98454
BSTAR          = .48981297E-3
MEAN_MOTION_DOT = .3851E-3
MEAN_MOTION_DDOT = 0

CCSDS_OMM_VERS = 2.0
CREATION_DATE  = 
ORIGINATOR     = 

OBJECT_NAME    = ASTEX 1
OBJECT_ID      = 1971-089A
CENTER_NAME    = EARTH
REF_FRAME      = TEME
TIME_SYSTEM    = UTC
MEAN_ELEMENT_THEORY = SGP/SGP4

EPOCH          = 2026-02-11T04:45:22.093632
MEAN_MOTION    = 14.50739013
ECCENTRICITY   = .00161045
INCLINATION    = 92.7150
RA_OF_ASC_NODE = 143.1892
ARG_OF_PERICENTER = 166.1917
MEAN_ANOMALY   = 193.9733

EPHEMERIS_TYPE = 0
CLASSIFICATION_TYPE = U
NORAD_CAT_ID   = 5560
ELEMENT_SET_NO = 999
REV_AT_EPOCH   = 85846
BSTAR          = .17355003E-3
MEAN_MOTION_DOT = .682E-5
MEAN_MOTION_DDOT = 0

CCSDS_OMM_VERS = 2.0
CREATION_DATE  = 
ORIGINATOR     = 

OBJECT_NAME    = SL-8 R/B
OBJECT_ID      = 1971-119B
CENTER_NAME    = EARTH
REF_FRAME      = TEME
TIME_SYSTEM    = UTC
MEAN_ELEMENT_THEORY = SGP/SGP4

EPOCH          = 2026-02-10T22:20:54.927456
MEAN_MOTION    = 14.37023859
ECCENTRICITY   = .05535356
INCLINATION    = 73.8852
RA_OF_ASC_NODE = 225.7048
ARG_OF_PERICENTER = 197.8335
MEAN_ANOMALY   = 160.2700

EPHEMERIS_TYPE = 0
CLASSIFICATION_TYPE = U
NORAD_CAT_ID   = 5730
ELEMENT_SET_NO = 999
REV_AT_EPOCH   = 65164
BSTAR          = .68597743E-3
MEAN_MOTION_DOT = .13228E-3
MEAN_MOTION_DDOT = 0

CCSDS_OMM_VERS = 2.0
CREATION_DATE  = 
ORIGINATOR     = 

OBJECT_NAME    = OAO 3 (COPERNICUS)
OBJECT_ID      = 1972-065A
CENTER_NAME    = EARTH
REF_FRAME      = TEME
TIME_SYSTEM    = UTC
MEAN_ELEMENT_THEORY = SGP/SGP4

EPOCH          = 2026-02-11T04:46:42.311712
MEAN_MOTION    = 14.59974155
ECCENTRICITY   = .00071508
INCLINATION    = 35.0055
RA_OF_ASC_NODE = 88.2379
ARG_OF_PERICENTER = 301.6691
MEAN_ANOMALY   = 105.4248

EPHEMERIS_TYPE = 0
CLASSIFICATION_TYPE = U
NORAD_CAT_ID   = 6153
ELEMENT_SET_NO = 999
REV_AT_EPOCH   = 84232
BSTAR          = .89810052E-4
MEAN_MOTION_DOT = .416E-5
MEAN_MOTION_DDOT = 0

